IRIDIUM 126             
1 42809U 17039G   25215.28328597  .00000240  00000+0  78697-4 0  9998
2 42809  86.3997 126.5601 0002081  79.7824 280.3606 14.34214748424380
IRIDIUM 124             
1 42810U 17039H   25215.51714800  .00000321  00000+0  89371-4 0  9993
2 42810  86.4446  63.1688 0002150  93.3289 266.8158 14.43280739429296
IRIDIUM 128             
1 42811U 17039J   25215.34378147  .00000024  00000+0  13923-5 0  9996
2 42811  86.4025 158.0135 0002169  94.0961 266.0483 14.34217851424424
IRIDIUM 121             
1 42812U 17039K   25215.30230524  .00000250  00000+0  82176-4 0  9995
2 42812  86.3996 126.5777 0002224  87.9034 272.2417 14.34218021424265
IRIDIUM 133             
1 42955U 17061A   25215.37549456  .00000323  00000+0  10814-3 0  9992
2 42955  86.4027 158.1098 0002238  88.0720 272.0732 14.34217536409222
IRIDIUM 100             
1 42956U 17061B   25215.36915138  .00000014  00000+0 -18952-5 0  9997
2 42956  86.4028 158.0389 0001901  85.2164 274.9248 14.34217646409228
IRIDIUM 122             
1 42957U 17061C   25215.33743864  .00000002  00000+0 -63010-5 0  9992
2 42957  86.4028 158.0513 0002081  84.2469 275.8964 14.34217618409229
IRIDIUM 129             
1 42958U 17061D   25215.36281300  .00000224  00000+0  72847-4 0  9990
2 42958  86.4022 158.1050 0003142  70.6786 289.4750 14.34218406409243
